NORAD_CAT_ID,OBJECT_NAME,OBJECT_TYPE,EPOCH,MEAN_MOTION,ECCENTRICITY,INCLINATION,RA_OF_ASC_NODE,ARG_OF_PERICENTER,MEAN_ANOMALY,BSTAR,MEAN_MOTION_DOT,MEAN_MOTION_DDOT,TLE_LINE0,TLE_LINE1,TLE_LINE2,SEMIMAJOR_AXIS,PERIOD,APOGEE,PERIGEE,DECAYED
54093.0,STARLINK-5213,PAYLOAD,2023-04-13 07:10:26,15.08851717,0.0001082,53.2171,58.6383,96.4697,263.6418,0.00013468,1.857e-05,0.0,0 STARLINK-5213,1 54093U 22136AU  23103.29892112  .00001857  00000-0  13468-3 0  9994,2 54093  53.2171  58.6383 0001082  96.4697 263.6418 15.08851717 26750,6917.845,95.437,540.458,538.961,0.0
54093.0,STARLINK-5213,PAYLOAD,2023-04-13 13:31:59,15.08846084,9.85e-05,53.2167,57.4476,94.0002,266.1103,9.1502e-05,1.169e-05,0.0,0 STARLINK-5213,1 54093U 22136AU  23103.56388366  .00001169  00000-0  91502-4 0  9997,2 54093  53.2167  57.4476 0000985  94.0002 266.1103 15.08846084 27267,6917.862,95.437,540.408,539.045,0.0
54093.0,STARLINK-5213,PAYLOAD,2023-04-14 07:01:14,15.08846526,0.0001084,53.2173,54.1795,95.5141,264.5975,0.00019391,2.8e-05,0.0,0 STARLINK-5213,1 54093U 22136AU  23104.29252862  .00002800  00000-0  19391-3 0  9997,2 54093  53.2173  54.1795 0001084  95.5141 264.5975 15.08846526 27375,6917.86,95.437,540.475,538.976,0.0
54093.0,STARLINK-5213,PAYLOAD,2023-04-15 00:30:29,15.08834364,8.68e-05,53.2168,50.9077,88.9847,271.1244,-0.00010315,-1.929e-05,0.0,0 STARLINK-5213,1 54093U 22136AU  23105.02117288 -.00001929  00000-0 -10315-3 0  9991,2 54093  53.2168  50.9077 0000868  88.9847 271.1244 15.08834364 27486,6917.898,95.438,540.363,539.162,0.0
54093.0,STARLINK-5213,PAYLOAD,2023-04-15 05:16:38,15.08844168,0.0001117,53.2173,50.0142,85.594,274.518,0.00014797,2.068e-05,0.0,0 STARLINK-5213,1 54093U 22136AU  23105.21988919  .00002068  00000-0  14797-3 0  9990,2 54093  53.2173  50.0142 0001117  85.5940 274.5180 15.08844168 27514,6917.868,95.437,540.505,538.96,0.0
54093.0,STARLINK-5213,PAYLOAD,2023-04-16 05:07:25,15.08845686,0.0001358,53.2179,45.5568,84.0751,276.0396,0.00020553,2.985e-05,0.0,0 STARLINK-5213,1 54093U 22136AU  23106.21349207  .00002985  00000-0  20553-3 0  9997,2 54093  53.2179  45.5568 0001358  84.0751 276.0396 15.08845686 27660,6917.863,95.437,540.667,538.789,0.0
54093.0,STARLINK-5213,PAYLOAD,2023-04-16 06:42:48,15.08846152,0.0001341,53.2179,45.2596,84.7634,275.3511,0.00021742,3.175e-05,0.0,0 STARLINK-5213,1 54093U 22136AU  23106.27973164  .00003175  00000-0  21742-3 0  9991,2 54093  53.2179  45.2596 0001341  84.7634 275.3511 15.08846152 27207,6917.862,95.437,540.654,538.799,0.0
54093.0,STARLINK-5213,PAYLOAD,2023-04-17 03:22:51,15.08831979,0.0001352,53.2188,41.3923,91.1075,269.0072,3.8387e-05,3.23e-06,0.0,0 STARLINK-5213,1 54093U 22136AU  23107.14087146  .00000323  00000-0  38387-4 0  9990,2 54093  53.2188  41.3923 0001352  91.1075 269.0072 15.08831979 27800,6917.905,95.438,540.705,538.835,0.0
54093.0,STARLINK-5213,PAYLOAD,2023-04-17 19:16:41,15.08850456,0.0001055,53.2182,38.4187,94.1102,266.0011,0.00023217,3.41e-05,0.0,0 STARLINK-5213,1 54093U 22136AU  23107.80325951  .00003410  00000-0  23217-3 0  9997,2 54093  53.2182  38.4187 0001055  94.1102 266.0011 15.08850456 27909,6917.848,95.437,540.443,538.984,0.0
54093.0,STARLINK-5213,PAYLOAD,2023-04-18 04:48:59,15.08874502,0.000124,53.2182,36.6335,100.619,259.4941,0.00056338,8.698e-05,0.0,0 STARLINK-5213,1 54093U 22136AU  23108.20068359  .00008698  00000-0  56338-3 0  9991,2 54093  53.2182  36.6335 0001240 100.6190 259.4941 15.08874502 27490,6917.775,95.435,540.498,538.782,0.0
54093.0,STARLINK-5213,PAYLOAD,2023-04-18 19:07:29,15.08842607,0.0001612,53.2188,33.9594,92.6503,267.4674,0.00010109,1.321e-05,0.0,0 STARLINK-5213,1 54093U 22136AU  23108.79686489  .00001321  00000-0  10109-3 0  9997,2 54093  53.2188  33.9594 0001612  92.6503 267.4674 15.08842607 28050,6917.872,95.437,540.853,538.622,0.0
54093.0,STARLINK-5213,PAYLOAD,2023-04-19 04:39:47,15.08845023,0.0001318,53.2189,32.1736,88.5887,271.5257,0.00010237,1.342e-05,0.0,0 STARLINK-5213,1 54093U 22136AU  23109.19430282  .00001342  00000-0  10237-3 0  9995,2 54093  53.2189  32.1736 0001318  88.5887 271.5257 15.08845023 27644,6917.865,95.437,540.642,538.818,0.0
54093.0,STARLINK-5213,PAYLOAD,2023-04-19 22:09:01,15.08849708,0.0001328,53.2186,28.9021,89.7847,270.3297,-0.0001629,-2.88e-05,0.0,0 STARLINK-5213,1 54093U 22136AU  23109.92293716 -.00002880  00000-0 -16290-3 0  9990,2 54093  53.2186  28.9021 0001328  89.7847 270.3297 15.08849708 27758,6917.851,95.437,540.634,538.797,0.0
54093.0,STARLINK-5213,PAYLOAD,2023-04-21 02:45:58,15.08835137,0.0001286,53.2179,23.5517,97.1706,262.9432,9.3287e-05,1.197e-05,0.0,0 STARLINK-5213,1 54093U 22136AU  23111.11526579  .00001197  00000-0  93287-4 0  9990,2 54093  53.2179  23.5517 0001286  97.1706 262.9432 15.08835137 28403,6917.895,95.438,540.65,538.871,0.0
54093.0,STARLINK-5213,PAYLOAD,2023-04-21 10:42:54,15.08840928,0.0001152,53.2178,22.0643,94.0458,266.0666,0.00010994,1.462e-05,0.0,0 STARLINK-5213,1 54093U 22136AU  23111.44646300  .00001462  00000-0  10994-3 0  9999,2 54093  53.2178  22.0643 0001152  94.0458 266.0666 15.08840928 27988,6917.878,95.437,540.539,538.946,0.0
54093.0,STARLINK-5213,PAYLOAD,2023-04-22 04:12:08,15.08849844,0.000115,53.2181,18.7933,103.0593,257.0527,0.00015251,2.141e-05,0.0,0 STARLINK-5213,1 54093U 22136AU  23112.17509907  .00002141  00000-0  15251-3 0  9997,2 54093  53.2181  18.7933 0001150 103.0593 257.0527 15.08849844 28090,6917.85,95.437,540.511,538.92,0.0
54093.0,STARLINK-5213,PAYLOAD,2023-04-22 16:55:13,15.08842876,0.0001086,53.2172,16.4154,105.7683,254.3429,0.00022449,3.287e-05,0.0,0 STARLINK-5213,1 54093U 22136AU  23112.70502107  .00003287  00000-0  22449-3 0  9990,2 54093  53.2172  16.4154 0001086 105.7683 254.3429 15.08842876 28175,6917.872,95.437,540.488,538.985,0.0
54093.0,STARLINK-5213,PAYLOAD,2023-04-23 00:52:09,15.08847584,0.000107,53.2176,14.9285,102.5514,257.5597,0.0001136,1.521e-05,0.0,0 STARLINK-5213,1 54093U 22136AU  23113.03621778  .00001521  00000-0  11360-3 0  9992,2 54093  53.2176  14.9285 0001070 102.5514 257.5597 15.08847584 28226,6917.857,95.437,540.462,538.982,0.0
54093.0,STARLINK-5213,PAYLOAD,2023-04-23 16:46:00,15.08839828,0.0001101,53.2171,11.9554,100.0585,260.0532,-3.4061e-06,-3.42e-06,0.0,0 STARLINK-5213,1 54093U 22136AU  23113.69862104 -.00000342  00000-0 -34061-5 0  9991,2 54093  53.2171  11.9554 0001101 100.0585 260.0532 15.08839828 28324,6917.881,95.438,540.508,538.984,0.0
54093.0,STARLINK-5213,PAYLOAD,2023-04-24 02:18:19,15.08853699,0.000137,53.2186,10.1749,108.1263,251.9878,7.1212e-05,8.46e-06,0.0,0 STARLINK-5213,1 54093U 22136AU  23114.09605480  .00000846  00000-0  71212-4 0  9993,2 54093  53.2186  10.1749 0001370 108.1263 251.9878 15.08853699 28859,6917.839,95.437,540.651,538.756,0.0
54093.0,STARLINK-5213,PAYLOAD,2023-04-24 22:58:18,15.08876513,0.0001308,53.2176,6.3041,78.2774,281.8365,0.00043715,6.683e-05,0.0,0 STARLINK-5213,1 54093U 22136AU  23114.95715296  .00006683  00000-0  43715-3 0  9996,2 54093  53.2176   6.3041 0001308  78.2774 281.8365 15.08876513 28982,6917.769,95.435,540.539,538.729,0.0
54093.0,STARLINK-5213,PAYLOAD,2023-04-26 03:35:17,15.08808203,0.0001409,53.2162,0.9494,98.8162,261.299,-0.00048831,-8.044e-05,0.0,0 STARLINK-5213,1 54093U 22136AU  23116.14951316 -.00008044  00000-0 -48831-3 0  9993,2 54093  53.2162   0.9494 0001409  98.8162 261.2990 15.08808203 28695,6917.978,95.44,540.817,538.868,0.0
54093.0,STARLINK-5213,PAYLOAD,2023-04-26 16:18:23,15.08808714,0.0001357,53.2165,358.5706,90.5191,269.5957,0.00039458,5.992e-05,0.0,0 STARLINK-5213,1 54093U 22136AU  23116.67944228  .00005992  00000-0  39458-3 0  9997,2 54093  53.2165 358.5706 0001357  90.5191 269.5957 15.08808714 28779,6917.976,95.44,540.78,538.902,0.0
54093.0,STARLINK-5213,PAYLOAD,2023-04-27 20:55:19,15.08848194,0.0001251,53.2175,353.2244,81.7061,278.4073,0.00072858,0.00011329,0.0,0 STARLINK-5213,1 54093U 22136AU  23117.87175635  .00011329  00000-0  72858-3 0  9990,2 54093  53.2175 353.2244 0001251  81.7061 278.4073 15.08848194 29427,6917.855,95.437,540.586,538.855,0.0
54093.0,STARLINK-5213,PAYLOAD,2023-04-28 03:16:51,15.08882324,0.0001424,53.2168,352.0302,106.9688,253.146,0.0010657,0.00016733,0.0,0 STARLINK-5213,1 54093U 22136AU  23118.13670433  .00016733  00000-0  10657-2 0  9998,2 54093  53.2168 352.0302 0001424 106.9688 253.1460 15.08882324 29465,6917.751,95.435,540.601,538.631,0.0
54093.0,STARLINK-5213,PAYLOAD,2023-04-28 12:49:10,15.08851757,0.0001385,53.2176,350.2467,102.6069,257.5078,-0.00015754,-2.795e-05,0.0,0 STARLINK-5213,1 54093U 22136AU  23118.53414717 -.00002795  00000-0 -15754-3 0  9992,2 54093  53.2176 350.2467 0001385 102.6069 257.5078 15.08851757 29524,6917.844,95.437,540.668,538.751,0.0
54093.0,STARLINK-5213,PAYLOAD,2023-04-29 12:39:57,15.08838603,0.0001393,53.2167,345.7872,90.9092,269.206,0.00050618,7.777e-05,0.0,0 STARLINK-5213,1 54093U 22136AU  23119.52775147  .00007777  00000-0  50618-3 0  9990,2 54093  53.2167 345.7872 0001393  90.9092 269.2060 15.08838603 29208,6917.885,95.438,540.713,538.786,0.0
54093.0,STARLINK-5213,PAYLOAD,2023-04-29 19:01:30,15.08847014,0.0001324,53.2165,344.5974,83.9829,276.1314,0.00042114,6.422e-05,0.0,0 STARLINK-5213,1 54093U 22136AU  23119.79270989  .00006422  00000-0  42114-3 0  9991,2 54093  53.2165 344.5974 0001324  83.9829 276.1314 15.08847014 29711,6917.859,95.437,540.64,538.808,0.0
54093.0,STARLINK-5213,PAYLOAD,2023-04-30 01:23:02,15.08854195,0.0001313,53.2166,343.4081,81.904,278.2101,0.00069962,0.00010868,0.0,0 STARLINK-5213,1 54093U 22136AU  23120.05766824  .00010868  00000-0  69962-3 0  9999,2 54093  53.2166 343.4081 0001313  81.9040 278.2101 15.08854195 29287,6917.837,95.437,540.61,538.794,0.0
54093.0,STARLINK-5213,PAYLOAD,2023-04-30 20:27:40,15.08839275,0.0001341,53.2162,339.8398,81.8617,278.2527,9.4456e-05,1.216e-05,0.0,0 STARLINK-5213,1 54093U 22136AU  23120.85255194  .00001216  00000-0  94456-4 0  9994,2 54093  53.2162 339.8398 0001341  81.8617 278.2527 15.08839275 29872,6917.883,95.438,540.675,538.82,0.0
